H1 CPF 01  gfz 2021 03 12 01  5711 terrasarx 
H2 0702601  6201 31698    2021 03 12 00 59 42 2021 03 17 00 00 42   120 1 1  0 0 0
H9
10 0 59289  55422.000000  0    4467900.091   4202146.178  -3145066.168
10 0 59289  55542.000000  0    4856074.667   4307492.004  -2316383.697
10 0 59289  55662.000000  0    5160686.451   4331647.113  -1447016.324
10 0 59289  55782.000000  0    5374935.484   4275648.138   -552212.810
10 0 59289  55902.000000  0    5493636.772   4142047.337    352303.890
10 0 59289  56022.000000  0    5513343.956   3934843.582   1250618.927
10 0 59289  56142.000000  0    5432439.674   3659382.808   2126914.029
10 0 59289  56262.000000  0    5251188.519   3322230.764   2965755.199
10 0 59289  56382.000000  0    4971750.662   2931022.441   3752372.998
10 0 59289  56502.000000  0    4598156.788   2494290.741   4472928.871
10 0 59289  56622.000000  0    4136245.785   2021279.248   5114759.767
10 0 59289  56742.000000  0    3593568.136   1521746.877   5666602.083
10 0 59289  56862.000000  0    2979253.295   1005764.374   6118786.900
10 0 59289  56982.000000  0    2303848.871    483509.452   6463402.332
10 0 59289  57102.000000  0    1579135.454    -34932.903   6694424.746
10 0 59289  57222.000000  0     817918.853   -539763.968   6807820.116
10 0 59289  57342.000000  0      33801.501  -1021656.460   6801610.496
10 0 59289  57462.000000  0    -759060.925  -1471926.189   6675905.425
10 0 59289  57582.000000  0   -1546214.505  -1882688.579   6432899.208
10 0 59289  57702.000000  0   -2313168.677  -2246996.277   6076833.652
10 0 59289  57822.000000  0   -3045661.063  -2558956.634   5613930.527
10 0 59289  57942.000000  0   -3729926.129  -2813830.053   5052291.313
10 0 59289  58062.000000  0   -4352959.099  -3008104.326   4401759.746
10 0 59289  58182.000000  0   -4902768.322  -3139543.368   3673753.132
10 0 59289  58302.000000  0   -5368612.254  -3207209.557   2881064.982
10 0 59289  58422.000000  0   -5741216.918  -3211460.115   2037641.647
10 0 59289  58542.000000  0   -6012968.310  -3153917.284   1158333.943
10 0 59289  58662.000000  0   -6178072.841  -3037410.995    258629.042
10 0 59289  58782.000000  0   -6232682.448  -2865896.048   -645629.736
10 0 59289  58902.000000  0   -6174981.594  -2644346.480  -1538531.598
10 0 59289  59022.000000  0   -6005231.141  -2378628.404  -2404387.887
10 0 59289  59142.000000  0   -5725770.076  -2075356.319  -3228013.875
10 0 59289  59262.000000  0   -5340976.659  -1741736.648  -3994998.790
10 0 59289  59382.000000  0   -4857189.520  -1385402.326  -4691957.975
10 0 59289  59502.000000  0   -4282592.314  -1014242.764  -5306763.240
10 0 59289  59622.000000  0   -3627063.847   -636232.768  -5828747.255
10 0 59289  59742.000000  0   -2901998.794   -259264.954  -6248878.378
10 0 59289  59862.000000  0   -2120103.740    109010.921  -6559905.170
10 0 59289  59982.000000  0   -1295171.782    461338.188  -6756470.105
10 0 59289  60102.000000  0    -441840.787    790991.018  -6835191.530
10 0 59289  60222.000000  0     424661.063   1091899.337  -6794714.782
10 0 59289  60342.000000  0    1288779.228   1358756.636  -6635733.750
10 0 59289  60462.000000  0    2134906.401   1587111.888  -6360982.518
10 0 59289  60582.000000  0    2947659.192   1773443.424  -5975193.130
10 0 59289  60702.000000  0    3712154.136   1915212.727  -5485021.458
10 0 59289  60822.000000  0    4414278.077   2010898.145  -4898943.350
10 0 59289  60942.000000  0    5040951.866   2060008.576  -4227119.971
10 0 59289  61062.000000  0    5580380.071   2063075.538  -3481231.259
10 0 59289  61182.000000  0    6022281.081   2021623.661  -2674281.358
10 0 59289  61302.000000  0    6358094.540   1938120.420  -1820377.666
10 0 59289  61422.000000  0    6581158.588   1815905.638   -934484.534
10 0 59289  61542.000000  0    6686852.181   1659101.359    -32158.343
10 0 59289  61662.000000  0    6672697.414   1472504.263    870732.636
10 0 59289  61782.000000  0    6538418.972   1261464.324   1758293.558
10 0 59289  61902.000000  0    6285962.215   1031751.598   2614892.192
10 0 59289  62022.000000  0    5919463.509    789414.180   3425443.232
10 0 59289  62142.000000  0    5445177.492    540632.357   4175681.060
10 0 59289  62262.000000  0    4871360.769    291571.903   4852414.298
10 0 59289  62382.000000  0    4208119.743     48241.354   5443758.765
10 0 59289  62502.000000  0    3467221.832   -183645.688   5939345.303
10 0 59289  62622.000000  0    2661877.075   -398797.146   6330495.986
10 0 59289  62742.000000  0    1806496.793   -592456.983   6610370.133
10 0 59289  62862.000000  0     916431.813   -760505.904   6774078.980
10 0 59289  62982.000000  0       7693.640   -899546.262   6818766.047
10 0 59289  63102.000000  0    -903333.900  -1006969.136   6743652.543
10 0 59289  63222.000000  0   -1800188.908  -1081003.261   6550049.322
10 0 59289  63342.000000  0   -2666627.151  -1120743.994   6241334.728
10 0 59289  63462.000000  0   -3486914.851  -1126162.327   5822900.455
10 0 59289  63582.000000  0   -4246117.361  -1098094.648   5302064.835
10 0 59289  63702.000000  0   -4930376.851  -1038213.694   4687951.091
10 0 59289  63822.000000  0   -5527172.905   -948979.718   3991332.181
10 0 59289  63942.000000  0   -6025559.910   -833573.267   3224444.548
10 0 59289  64062.000000  0   -6416376.479   -695810.926   2400775.201
10 0 59289  64182.000000  0   -6692424.966   -540045.814   1534824.197
10 0 59289  64302.000000  0   -6848613.464   -371055.171    641843.722
10 0 59289  64422.000000  0   -6882054.992   -193918.116   -262438.375
10 0 59289  64542.000000  0   -6792122.756    -13886.010  -1162104.511
10 0 59289  64662.000000  0   -6580458.806    163750.918  -2041336.574
10 0 59289  64782.000000  0   -6250938.381    333796.612  -2884700.197
10 0 59289  64902.000000  0   -5809590.910    491279.370  -3677422.537
10 0 59289  65022.000000  0   -5264476.301    631576.016  -4405653.704
10 0 59289  65142.000000  0   -4625524.619    750526.194  -5056706.671
10 0 59289  65262.000000  0   -3904342.252    844534.477  -5619272.204
10 0 59289  65382.000000  0   -3113990.985    910658.069  -6083606.162
10 0 59289  65502.000000  0   -2268744.351    946677.990  -6441686.648
10 0 59289  65622.000000  0   -1383827.695    951153.948  -6687341.237
10 0 59289  65742.000000  0    -475144.304    923461.790  -6816342.417
10 0 59289  65862.000000  0     441004.937    863812.274  -6826470.977
10 0 59289  65982.000000  0    1348205.569    773251.578  -6717551.428
10 0 59289  66102.000000  0    2230217.984    653643.275  -6491456.584
10 0 59289  66222.000000  0    3071262.293    507632.232  -6152078.426
10 0 59289  66342.000000  0    3856296.749    338591.069  -5705267.610
10 0 59289  66462.000000  0    4571284.521    150548.610  -5158742.193
10 0 59289  66582.000000  0    5203447.149    -51896.882  -4521966.485
10 0 59289  66702.000000  0    5741500.149   -263679.505  -3805997.786
10 0 59289  66822.000000  0    6175863.492   -479380.508  -3023303.274
10 0 59289  66942.000000  0    6498844.067   -693354.067  -2187550.047
10 0 59289  67062.000000  0    6704785.249   -899861.106  -1313369.065
10 0 59289  67182.000000  0    6790177.809  -1093207.561   -416097.675
10 0 59289  67302.000000  0    6753729.537  -1267884.222    488493.617
10 0 59289  67422.000000  0    6596391.274  -1418704.509   1384485.752
10 0 59289  67542.000000  0    6321337.370  -1540937.035   2256099.691
10 0 59289  67662.000000  0    5933901.348  -1630428.406   3087984.198
10 0 59289  67782.000000  0    5441467.071  -1683713.124   3865493.738
10 0 59289  67902.000000  0    4853320.121  -1698109.223   4574951.272
10 0 59289  68022.000000  0    4180463.426  -1671795.584   5203890.623
10 0 59289  68142.000000  0    3435402.734  -1603869.602   5741275.271
10 0 59289  68262.000000  0    2631904.787  -1494385.117   6177689.295
10 0 59289  68382.000000  0    1784736.069  -1344369.381   6505496.331
10 0 59289  68502.000000  0     909386.917  -1155819.265   6718967.782
10 0 59289  68622.000000  0      21785.083   -931675.593   6814377.180
10 0 59289  68742.000000  0    -861994.528   -675776.843   6790059.892
10 0 59289  68862.000000  0   -1726019.530   -392793.511   6646439.681
10 0 59289  68982.000000  0   -2554785.748    -88143.199   6386021.745
10 0 59289  69102.000000  0   -3333494.667    232112.052   6013352.717
10 0 59289  69222.000000  0   -4048319.561    561384.442   5534947.129
10 0 59289  69342.000000  0   -4686655.703    892693.182   4959179.562
10 0 59289  69462.000000  0   -5237349.432   1218809.459   4296144.076
10 0 59289  69582.000000  0   -5690901.573   1532410.841   3557481.133
10 0 59289  69702.000000  0   -6039639.780   1826241.509   2756175.587
10 0 59289  69822.000000  0   -6277857.335   2093274.944   1906328.583
10 0 59289  69942.000000  0   -6401914.917   2326875.313   1022906.528
10 0 59289  70062.000000  0   -6410301.138   2520953.809    121470.605
10 0 59289  70182.000000  0   -6303649.444   2670114.670   -782105.768
10 0 59289  70302.000000  0   -6084711.822   2769787.657  -1671925.448
10 0 59289  70422.000000  0   -5758290.134   2816344.232  -2532355.770
10 0 59289  70542.000000  0   -5331125.562   2807193.907  -3348310.919
10 0 59289  70662.000000  0   -4811750.448   2740857.618  -4105519.958
10 0 59289  70782.000000  0   -4210307.741   2617017.913  -4790776.076
10 0 59289  70902.000000  0   -3538342.556   2436544.551  -5392162.174
10 0 59289  71022.000000  0   -2808572.606   2201496.317  -5899249.080
10 0 59289  71142.000000  0   -2034643.104   1915099.352  -6303266.761
10 0 59289  71262.000000  0   -1230868.125   1581701.649  -6597245.006
10 0 59289  71382.000000  0    -411967.240   1206705.710  -6776121.445
10 0 59289  71502.000000  0     407199.413    796480.814  -6836819.036
10 0 59289  71622.000000  0    1211893.400    358256.973  -6778294.055
10 0 59289  71742.000000  0    1987758.295    -99999.994  -6601553.376
10 0 59289  71862.000000  0    2721069.824   -569729.669  -6309637.928
99
